IRIDIUM 155             
1 43573U 18061E   23007.02191580  .00000347  00000+0  11677-3 0  9994
2 43573  86.3967 222.0271 0002148  93.7222 266.4220 14.34215244233177
IRIDIUM 154             
1 43574U 18061F   23007.35173745  .00000207  00000+0  66942-4 0  9995
2 43574  86.3978 221.9627 0001756  84.4811 275.6585 14.34216201233268
IRIDIUM 163             
1 43575U 18061G   23007.33269796  .00000332  00000+0  11143-3 0  9997
2 43575  86.4005 221.9252 0002273  77.7191 282.4259 14.34211973233238
IRIDIUM 156             
1 43576U 18061H   23007.02825589  .00000303  00000+0  10119-3 0  9992
2 43576  86.3974 222.0575 0002291  86.7072 273.4386 14.34214314233188
IRIDIUM 164             
1 43577U 18061J   23007.00924648  .00000321  00000+0  10747-3 0  9994
2 43577  86.3975 222.0866 0001855  81.4797 278.6609 14.34217216233228
IRIDIUM 159             
1 43578U 18061K   23007.04728434  .00000317  00000+0  10598-3 0  9993
2 43578  86.3973 222.0341 0001836  84.4497 275.6909 14.34223751233191
IRIDIUM 180             
1 43922U 19002A   23007.11656662  .00000346  00000+0  11664-3 0  9990
2 43922  86.3998 158.9764 0001715  82.4944 277.6446 14.34217684208815
IRIDIUM 176             
1 43923U 19002B   23007.36808399  .00001362  00000+0  21217-3 0  9998
2 43923  86.6161 158.9117 0002163  92.2297 267.9167 14.72244807214336
IRIDIUM 168             
1 43924U 19002C   23007.17998299  .00000302  00000+0  10079-3 0  9994
2 43924  86.4002 158.9916 0001761  90.3627 269.7771 14.34214795208802
IRIDIUM 173             
1 43925U 19002D   23007.37660704  .00000315  00000+0  10553-3 0  9995
2 43925  86.3997 158.8498 0001818  88.7871 271.3533 14.34215484208827
IRIDIUM 169             
1 43926U 19002E   23007.24031035  .00000134  00000+0  37389-4 0  9997
2 43926  86.4247 190.4596 0005139 141.2434 218.9133 14.38613805209511
IRIDIUM 172             
1 43927U 19002F   23007.16095682  .00000343  00000+0  11558-3 0  9998
2 43927  86.3997 158.9441 0001747  85.9314 274.2082 14.34216490208795
IRIDIUM 175             
1 43928U 19002G   23007.15801116  .00001241  00000+0  19295-3 0  9999
2 43928  86.6134 158.8363 0002185  93.4375 266.7092 14.72259147214299
IRIDIUM 171             
1 43929U 19002H   23007.14192840  .00000339  00000+0  11405-3 0  9998
2 43929  86.4006 159.1186 0001750  91.3676 268.7720 14.34219967208782
IRIDIUM 170             
1 43930U 19002J   23007.17036621  .00001182  00000+0  18358-3 0  9998
2 43930  86.6130 158.9999 0002128  90.3530 269.7931 14.72248216214313
IRIDIUM 167             
1 43931U 19002K   23007.41466494  .00000380  00000+0  12851-3 0  9992
2 43931  86.3997 158.8494 0001704  85.0851 275.0539 14.34217602208823
